NORAD_CAT_ID,OBJECT_NAME,OBJECT_TYPE,EPOCH,MEAN_MOTION,ECCENTRICITY,INCLINATION,RA_OF_ASC_NODE,ARG_OF_PERICENTER,MEAN_ANOMALY,BSTAR,MEAN_MOTION_DOT,MEAN_MOTION_DDOT,TLE_LINE0,TLE_LINE1,TLE_LINE2,SEMIMAJOR_AXIS,PERIOD,APOGEE,PERIGEE,DECAYED
49411.0,STARLINK-3162,PAYLOAD,2022-02-19 06:00:00,15.08849603,0.0002021,53.219,20.5881,49.9271,359.9622,0.00062238,9.634e-05,0.0,0 STARLINK-3162,1 49411U 21104D   22050.25001157  .00009634  00000-0  62238-3 0  9993,2 49411  53.2190  20.5881 0002021  49.9271 359.9622 15.08849603 16515,6917.851,95.437,541.114,538.318,0.0
49411.0,STARLINK-3162,PAYLOAD,2022-02-19 14:00:01,15.08878412,0.0001947,53.2191,19.0907,50.0725,11.4289,-0.001622,-0.00026037,0.0,0 STARLINK-3162,1 49411U 21104D   22050.58334491 -.00026037  00000-0 -16220-2 0  9996,2 49411  53.2191  19.0907 0001947  50.0725  11.4289 15.08878412  3617,6917.763000000001,95.435,540.975,538.281,0.0
49411.0,STARLINK-3162,PAYLOAD,2022-02-19 22:00:00,15.08880377,0.0001887,53.2194,17.5937,54.1259,19.0069,-0.0015464,-0.00024842,0.0,0 STARLINK-3162,1 49411U 21104D   22050.91667824 -.00024842  00000-0 -15464-2 0  9993,2 49411  53.2194  17.5937 0001887  54.1259  19.0069 15.08880377  3596,6917.757,95.435,540.927,538.317,0.0
49411.0,STARLINK-3162,PAYLOAD,2022-02-20 14:00:01,15.08874333,0.000188,53.2196,14.6018,48.3395,48.0393,-0.0037611,-0.00059707,0.0,0 STARLINK-3162,1 49411U 21104D   22051.58334491 -.00059707  00000-0 -37611-2 0  9994,2 49411  53.2196  14.6018 0001880  48.3395  48.0393 15.08874333 16710,6917.775,95.435,540.941,538.34,0.0
49411.0,STARLINK-3162,PAYLOAD,2022-02-20 22:00:00,15.08856332,0.0001814,53.2199,13.1049,51.216,56.7656,-0.0011925999999999,-0.00019227,0.0,0 STARLINK-3162,1 49411U 21104D   22051.91667824 -.00019227  00000-0 -11926-2 0  9994,2 49411  53.2199  13.1049 0001814  51.2160  56.7656 15.08856332  3590,6917.83,95.437,540.95,538.441,0.0
49411.0,STARLINK-3162,PAYLOAD,2022-02-21 06:00:00,15.08810588,0.0001954,53.2189,11.6105,44.9302,74.6634,0.0014039,0.00022108,0.0,0 STARLINK-3162,1 49411U 21104D   22052.25001157  .00022108  00000-0  14039-2 0  9991,2 49411  53.2189  11.6105 0001954  44.9302  74.6634 15.08810588 16814,6917.97,95.439,541.187,538.484,0.0
49411.0,STARLINK-3162,PAYLOAD,2022-02-21 22:00:00,15.08840389,0.0001816,53.2179,8.6162,51.2892,91.4514,0.00036631,5.547e-05,0.0,0 STARLINK-3162,1 49411U 21104D   22052.91667824  .00005547  00000-0  36631-3 0  9994,2 49411  53.2179   8.6162 0001816  51.2892  91.4514 15.08840389  3614,6917.879,95.438,541.0,538.488,0.0
49411.0,STARLINK-3162,PAYLOAD,2022-02-22 04:00:00,15.08843035,0.000198,53.2178,7.4955,46.7185,14.7221,-0.0003262,-5.476e-05,0.0,0 STARLINK-3162,1 49411U 21104D   22053.16667824 -.00005476  00000-0 -32620-3 0  9999,2 49411  53.2178   7.4955 0001980  46.7185  14.7221 15.08843035 16951,6917.871,95.437,541.106,538.366,0.0
49411.0,STARLINK-3162,PAYLOAD,2022-02-22 14:00:01,15.08853711,0.0001793,53.2177,5.6239,47.2732,118.6681,-0.0029406,-0.00046802,0.0,0 STARLINK-3162,1 49411U 21104D   22053.58334491 -.00046802  00000-0 -29406-2 0  9991,2 49411  53.2177   5.6239 0001793  47.2732 118.6681 15.08853711  3605,6917.8380000000025,95.437,540.944,538.4630000000002,0.0
49411.0,STARLINK-3162,PAYLOAD,2022-02-22 22:00:00,15.08841539,0.0001756,53.2179,4.1274,50.8297,126.7025,0.00010272,1.347e-05,0.0,0 STARLINK-3162,1 49411U 21104D   22053.91667824  .00001347  00000-0  10272-3 0  9992,2 49411  53.2179   4.1274 0001756  50.8297 126.7025 15.08841539  3602,6917.876,95.437,540.955,538.526,0.0
49411.0,STARLINK-3162,PAYLOAD,2022-02-23 06:00:00,15.08822209,0.0001922,53.2177,2.6326,44.6327,144.5026,0.0025823,0.00041029,0.0,0 STARLINK-3162,1 49411U 21104D   22054.25001157  .00041029  00000-0  25823-2 0  9999,2 49411  53.2177   2.6326 0001922  44.6327 144.5026 15.08822209 17114,6917.935,95.439,541.129,538.47,0.0
49411.0,STARLINK-3162,PAYLOAD,2022-02-23 14:00:01,15.08855378,0.0001723,53.2174,1.1348,47.4413,153.2833,-0.0030508,-0.00048535,0.0,0 STARLINK-3162,1 49411U 21104D   22054.58334491 -.00048535  00000-0 -30508-2 0  9992,2 49411  53.2174   1.1348 0001723  47.4413 153.2833 15.08855378  3611,6917.833000000001,95.437,540.89,538.506,0.0
49411.0,STARLINK-3162,PAYLOAD,2022-02-23 20:00:01,15.08818554,0.0001675,53.2174,0.012,51.0173,68.4026,0.001631,0.00025749,0.0,0 STARLINK-3162,1 49411U 21104D   22054.83334491  .00025749  00000-0  16310-2 0  9995,2 49411  53.2174   0.0120 0001675  51.0173  68.4026 15.08818554 17203,6917.946,95.439,540.97,538.6519999999998,0.0
49411.0,STARLINK-3162,PAYLOAD,2022-02-23 22:00:00,15.08836605,0.0001691,53.2175,359.6385,50.4034,161.9056,-0.00042174,-6.993e-05,0.0,0 STARLINK-3162,1 49411U 21104D   22054.91667824 -.00006993  00000-0 -42174-3 0  9993,2 49411  53.2175 359.6385 0001691  50.4034 161.9056 15.08836605  3616,6917.891,95.438,540.9259999999998,538.586,0.0
49411.0,STARLINK-3162,PAYLOAD,2022-02-24 14:00:01,15.08836532,0.0001729,53.2169,356.6456,48.6293,186.853,0.00011943,1.613e-05,0.0,0 STARLINK-3162,1 49411U 21104D   22055.58334491  .00001613  00000-0  11943-3 0  9990,2 49411  53.2169 356.6456 0001729  48.6293 186.8530 15.08836532  3604,6917.891,95.438,540.952,538.56,0.0
49411.0,STARLINK-3162,PAYLOAD,2022-02-24 22:00:00,15.08858107,0.0001759,53.217,355.1495,52.2208,194.8511,-0.00073485,-0.0001197,0.0,0 STARLINK-3162,1 49411U 21104D   22055.91667824 -.00011970  00000-0 -73485-3 0  9994,2 49411  53.2170 355.1495 0001759  52.2208 194.8511 15.08858107  3580,6917.825,95.436,540.9069999999998,538.4730000000002,0.0
49411.0,STARLINK-3162,PAYLOAD,2022-02-25 00:00:00,15.08861438,0.0001808,53.2169,354.7758,49.8277,290.1464,-0.0014775,-0.0002374,0.0,0 STARLINK-3162,1 49411U 21104D   22056.00001157 -.00023740  00000-0 -14775-2 0  9990,2 49411  53.2169 354.7758 0001808  49.8277 290.1464 15.08861438 17378,6917.815,95.436,540.931,538.429,0.0
49411.0,STARLINK-3162,PAYLOAD,2022-02-25 14:00:01,15.08832994,0.000173,53.2166,352.1563,48.6741,221.622,-0.00030345,-5.113e-05,0.0,0 STARLINK-3162,1 49411U 21104D   22056.58334491 -.00005113  00000-0 -30345-3 0  9999,2 49411  53.2166 352.1563 0001730  48.6741 221.6220 15.08832994  3603,6917.901999999999,95.438,540.964,538.57,0.0
49411.0,STARLINK-3162,PAYLOAD,2022-02-25 22:00:00,15.08849992,0.0001756,53.2166,350.6601,51.1285,230.7478,-0.00092995,-0.00015062,0.0,0 STARLINK-3162,1 49411U 21104D   22056.91667824 -.00015062  00000-0 -92995-3 0  9998,2 49411  53.2166 350.6601 0001756  51.1285 230.7478 15.08849992 17516,6917.85,95.437,540.93,538.5,0.0
49411.0,STARLINK-3162,PAYLOAD,2022-02-26 14:00:01,15.08816554,0.0001727,53.2166,347.6669,47.2619,257.8156,0.00030778,4.611e-05,0.0,0 STARLINK-3162,1 49411U 21104D   22057.58334491  .00004611  00000-0  30778-3 0  9990,2 49411  53.2166 347.6669 0001727  47.2619 257.8156 15.08816554  3607,6917.9519999999975,95.439,541.012,538.622,0.0
49411.0,STARLINK-3162,PAYLOAD,2022-02-26 22:00:00,15.08838683,0.0001786999999999,53.2168,346.1709,48.9341,267.7057,-0.0011745999999999,-0.00018933,0.0,0 STARLINK-3162,1 49411U 21104D   22057.91667824 -.00018933  00000-0 -11746-2 0  9993,2 49411  53.2168 346.1709 0001787  48.9341 267.7057 15.08838683  3612,6917.884,95.438,540.986,538.513,0.0
49411.0,STARLINK-3162,PAYLOAD,2022-02-27 06:00:00,15.0880646,0.0001958,53.2168,344.6759,43.5288,284.6965,0.0030154,0.00047985,0.0,0 STARLINK-3162,1 49411U 21104D   22058.25001157  .00047985  00000-0  30154-2 0  9993,2 49411  53.2168 344.6759 0001958  43.5288 284.6965 15.08806460 17711,6917.983,95.44,541.202,538.493,0.0
49411.0,STARLINK-3162,PAYLOAD,2022-02-27 14:00:01,15.08818041,0.0001822,53.217,343.1778,48.2384,291.5678,0.0017111,0.00027033,0.0,0 STARLINK-3162,1 49411U 21104D   22058.58334491  .00027033  00000-0  17111-2 0  9999,2 49411  53.2170 343.1778 0001822  48.2384 291.5678 15.08818041  3629,6917.948,95.439,541.073,538.552,0.0
49411.0,STARLINK-3162,PAYLOAD,2022-02-27 22:00:00,15.08854192,0.0001921,53.2173,341.6819,49.374,302.0071,-0.0015190999999999,-0.00024393,0.0,0 STARLINK-3162,1 49411U 21104D   22058.91667824 -.00024393  00000-0 -15191-2 0  9999,2 49411  53.2173 341.6819 0001921  49.3740 302.0071 15.08854192 17817,6917.837,95.437,541.031,538.373,0.0
49411.0,STARLINK-3162,PAYLOAD,2022-02-28 14:00:01,15.08736532,0.0001986,53.2176,338.6791,51.6088,322.9803,0.0098139,0.00158997,0.0,0 STARLINK-3162,1 49411U 21104D   22059.58334491  .00158997  00000-0  98139-2 0  9993,2 49411  53.2176 338.6791 0001986  51.6088 322.9803 15.08736532  3600,6918.196999999999,95.444,541.436,538.688,0.0
49411.0,STARLINK-3162,PAYLOAD,2022-02-28 22:00:00,15.08853832,0.0001931,53.2178,337.1930000000001,48.2013,337.9942,-0.0015571,-0.00024994,0.0,0 STARLINK-3162,1 49411U 21104D   22059.91667824 -.00024994  00000-0 -15571-2 0  9999,2 49411  53.2178 337.1930 0001931  48.2013 337.9942 15.08853832 17979,6917.8380000000025,95.437,541.039,538.367,0.0
49411.0,STARLINK-3162,PAYLOAD,2022-03-01 14:00:01,15.08841631,0.0001832,53.2177,334.1997,48.4854,0.9213,0.0006091,9.42e-05,0.0,0 STARLINK-3162,1 49411U 21104D   22060.58334491  .00009420  00000-0  60910-3 0  9998,2 49411  53.2177 334.1997 0001832  48.4854   0.9213 15.08841631 18077,6917.875,95.437,541.008,538.4730000000002,0.0
49411.0,STARLINK-3162,PAYLOAD,2022-03-01 22:00:01,15.08851642,0.0001886,53.2179,332.7043,47.32,13.752,-0.0022734,-0.00036299,0.0,0 STARLINK-3162,1 49411U 21104D   22060.91668981 -.00036299  00000-0 -22734-2 0  9996,2 49411  53.2179 332.7043 0001886  47.3200  13.7520 15.08851642  3606,6917.845,95.437,541.015,538.405,0.0
49411.0,STARLINK-3162,PAYLOAD,2022-03-02 14:00:01,15.08831618,0.0001827,53.2175,329.7109,49.6151,34.5843,0.00037655,5.708e-05,0.0,0 STARLINK-3162,1 49411U 21104D   22061.58334491  .00005708  00000-0  37655-3 0  9994,2 49411  53.2175 329.7109 0001827  49.6151  34.5843 15.08831618 18220,6917.906,95.438,541.035,538.507,0.0
